{
  "norad_id": 51114,
  "name": "STARLINK-3375",
  "history": [
    {
      "epoch": "2026-03-28T17:12:55.780992Z",
      "apogee_km": 540.6640686218352,
      "perigee_km": 538.8380228932774,
      "latitude_deg": 4.118116103628462e-06,
      "longitude_deg": 119.33273116145024,
      "height_km": 540.7160767214458,
      "semi_major_axis_km": 6917.888045757556,
      "eccentricity": 0.00013198,
      "inclination_deg": 53.2173,
      "raan_deg": 203.6989,
      "arg_perigee_deg": 94.3516,
      "mean_anomaly_deg": 265.7627,
      "mean_motion_rev_day": 15.08837495
    },
    {
      "epoch": "2026-03-29T01:09:51.106752Z",
      "apogee_km": 540.646976238233,
      "perigee_km": 538.8275753037051,
      "latitude_deg": -3.978324655633596e-05,
      "longitude_deg": -1.7110671406964832,
      "height_km": 540.6944678696545,
      "semi_major_axis_km": 6917.874275770969,
      "eccentricity": 0.0001315,
      "inclination_deg": 53.2175,
      "raan_deg": 202.2121,
      "arg_perigee_deg": 93.8703,
      "mean_anomaly_deg": 266.2439,
      "mean_motion_rev_day": 15.08842
    },
    {
      "epoch": "2026-03-29T07:31:23.577312Z",
      "apogee_km": 540.665511379173,
      "perigee_km": 538.7994852606962,
      "latitude_deg": 8.245088048631167e-06,
      "longitude_deg": -98.54738095142706,
      "height_km": 540.8603033715549,
      "semi_major_axis_km": 6917.869498319935,
      "eccentricity": 0.00013487,
      "inclination_deg": 53.218,
      "raan_deg": 201.0222,
      "arg_perigee_deg": 104.3958,
      "mean_anomaly_deg": 255.7184,
      "mean_motion_rev_day": 15.08843563
    },
    {
      "epoch": "2026-03-30T13:43:43.652928Z",
      "apogee_km": 540.7614451288273,
      "perigee_km": 538.7592672759938,
      "latitude_deg": 1.1247980959564403e-05,
      "longitude_deg": 161.47877494143881,
      "height_km": 540.6897674404827,
      "semi_major_axis_km": 6917.89735620241,
      "eccentricity": 0.00014471,
      "inclination_deg": 53.2168,
      "raan_deg": 195.3725,
      "arg_perigee_deg": 91.9402,
      "mean_anomaly_deg": 268.1756,
      "mean_motion_rev_day": 15.08834449
    },
    {
      "epoch": "2026-03-31T13:34:30.916704Z",
      "apogee_km": 540.601735240888,
      "perigee_km": 538.9126621933301,
      "latitude_deg": 1.0996592761142206e-05,
      "longitude_deg": 158.34260424168068,
      "height_km": 540.6153388622125,
      "semi_major_axis_km": 6917.894198717109,
      "eccentricity": 0.00012208,
      "inclination_deg": 53.2166,
      "raan_deg": 190.9126,
      "arg_perigee_deg": 87.4434,
      "mean_anomaly_deg": 272.6698,
      "mean_motion_rev_day": 15.08835482
    },
    {
      "epoch": "2026-04-01T13:25:18.641856Z",
      "apogee_km": 540.6887525487873,
      "perigee_km": 538.8707240299655,
      "latitude_deg": 1.749417557508441e-06,
      "longitude_deg": 155.20599920039814,
      "height_km": 540.813926930175,
      "semi_major_axis_km": 6917.916738289377,
      "eccentricity": 0.0001314,
      "inclination_deg": 53.2173,
      "raan_deg": 186.4542,
      "arg_perigee_deg": 98.7585,
      "mean_anomaly_deg": 261.3556,
      "mean_motion_rev_day": 15.08828108
    },
    {
      "epoch": "2026-04-02T10:05:18.665952Z",
      "apogee_km": 541.0947766765776,
      "perigee_km": 538.3969407193426,
      "latitude_deg": -8.749475516682938e-07,
      "longitude_deg": -159.5069524297384,
      "height_km": 541.1532684847215,
      "semi_major_axis_km": 6917.88285869796,
      "eccentricity": 0.00019499,
      "inclination_deg": 53.2197,
      "raan_deg": 182.5901,
      "arg_perigee_deg": 112.3111,
      "mean_anomaly_deg": 247.8088,
      "mean_motion_rev_day": 15.08839192
    },
    {
      "epoch": "2026-04-03T14:42:14.985216Z",
      "apogee_km": 540.4948070377595,
      "perigee_km": 538.9299895038703,
      "latitude_deg": -3.7442053727407623e-07,
      "longitude_deg": 124.7248819510907,
      "height_km": 540.5265822682827,
      "semi_major_axis_km": 6917.849398270814,
      "eccentricity": 0.0001131,
      "inclination_deg": 53.2172,
      "raan_deg": 177.2318,
      "arg_perigee_deg": 83.9967,
      "mean_anomaly_deg": 276.1154,
      "mean_motion_rev_day": 15.08850139
    },
    {
      "epoch": "2026-04-04T05:00:43.242048Z",
      "apogee_km": 540.5330277620442,
      "perigee_km": 538.9278058066529,
      "latitude_deg": 1.6719377717082913e-05,
      "longitude_deg": -93.1561448509928,
      "height_km": 540.5740217662122,
      "semi_major_axis_km": 6917.867416784348,
      "eccentricity": 0.00011602,
      "inclination_deg": 53.218,
      "raan_deg": 174.5561,
      "arg_perigee_deg": 86.2536,
      "mean_anomaly_deg": 273.8589,
      "mean_motion_rev_day": 15.08844244
    },
    {
      "epoch": "2026-04-05T14:23:48.979680Z",
      "apogee_km": 540.7043418726444,
      "perigee_km": 538.8088390288594,
      "latitude_deg": -6.921294372432377e-05,
      "longitude_deg": 118.4561123913065,
      "height_km": 540.707541124892,
      "semi_major_axis_km": 6917.893590450752,
      "eccentricity": 0.000137,
      "inclination_deg": 53.2168,
      "raan_deg": 168.3134,
      "arg_perigee_deg": 93.3457,
      "mean_anomaly_deg": 266.7691,
      "mean_motion_rev_day": 15.08835681
    },
    {
      "epoch": "2026-04-06T04:42:17.106048Z",
      "apogee_km": 540.6754543457146,
      "perigee_km": 538.8088721898812,
      "latitude_deg": -1.84006436119958e-05,
      "longitude_deg": -99.4245452265063,
      "height_km": 540.7133982433593,
      "semi_major_axis_km": 6917.879163267798,
      "eccentricity": 0.00013491,
      "inclination_deg": 53.2166,
      "raan_deg": 165.6375,
      "arg_perigee_deg": 94.6457,
      "mean_anomaly_deg": 265.4689,
      "mean_motion_rev_day": 15.08840401
    },
    {
      "epoch": "2026-04-07T10:54:36.909504Z",
      "apogee_km": 540.6801161769918,
      "perigee_km": 538.856833010107,
      "latitude_deg": 4.7971011999233216e-05,
      "longitude_deg": 160.60299055105452,
      "height_km": 540.7542282207451,
      "semi_major_axis_km": 6917.905474593549,
      "eccentricity": 0.00013178,
      "inclination_deg": 53.2162,
      "raan_deg": 159.988,
      "arg_perigee_deg": 95.6732,
      "mean_anomaly_deg": 264.4411,
      "mean_motion_rev_day": 15.08831793
    },
    {
      "epoch": "2026-04-08T10:45:24.518880Z",
      "apogee_km": 540.5685655204779,
      "perigee_km": 538.9791063268158,
      "latitude_deg": 2.104204929431558e-05,
      "longitude_deg": 157.46355180051947,
      "height_km": 540.6831580233916,
      "semi_major_axis_km": 6917.910835923647,
      "eccentricity": 0.00011488,
      "inclination_deg": 53.2162,
      "raan_deg": 155.5263,
      "arg_perigee_deg": 90.9705,
      "mean_anomaly_deg": 269.1419,
      "mean_motion_rev_day": 15.08830039
    },
    {
      "epoch": "2026-04-09T20:08:30.448320Z",
      "apogee_km": 540.5424368369349,
      "perigee_km": 538.9633592888022,
      "latitude_deg": 1.7039646356224085e-05,
      "longitude_deg": 9.073566252961752,
      "height_km": 540.6161137264722,
      "semi_major_axis_km": 6917.889898062868,
      "eccentricity": 0.00011413,
      "inclination_deg": 53.2171,
      "raan_deg": 149.2821,
      "arg_perigee_deg": 87.6222,
      "mean_anomaly_deg": 272.4901,
      "mean_motion_rev_day": 15.08836889
    },
    {
      "epoch": "2026-04-11T10:17:45.974976Z",
      "apogee_km": 540.5605924216925,
      "perigee_km": 538.940423167367,
      "latitude_deg": -8.432448517514514e-06,
      "longitude_deg": 148.05530743837178,
      "height_km": 540.6027877041759,
      "semi_major_axis_km": 6917.8875077945295,
      "eccentricity": 0.0001171,
      "inclination_deg": 53.2169,
      "raan_deg": 142.1455,
      "arg_perigee_deg": 86.9122,
      "mean_anomaly_deg": 273.2004,
      "mean_motion_rev_day": 15.08837671
    },
    {
      "epoch": "2026-04-12T19:40:50.656800Z",
      "apogee_km": 540.5041400558066,
      "perigee_km": 538.9371069469316,
      "latitude_deg": 3.635865162997116e-05,
      "longitude_deg": -0.3298263574091367,
      "height_km": 540.559763477984,
      "semi_major_axis_km": 6917.857623501369,
      "eccentricity": 0.00011326,
      "inclination_deg": 53.2161,
      "raan_deg": 135.9009,
      "arg_perigee_deg": 85.847,
      "mean_anomaly_deg": 274.2652,
      "mean_motion_rev_day": 15.08847448
    },
    {
      "epoch": "2026-04-14T08:14:43.859616Z",
      "apogee_km": 540.4894668234201,
      "perigee_km": 539.0095925369897,
      "latitude_deg": 3.90158676779115e-05,
      "longitude_deg": 162.85673613753275,
      "height_km": 540.6859871890954,
      "semi_major_axis_km": 6917.886529680204,
      "eccentricity": 0.00010696,
      "inclination_deg": 53.2167,
      "raan_deg": 129.0608,
      "arg_perigee_deg": 93.1325,
      "mean_anomaly_deg": 266.979,
      "mean_motion_rev_day": 15.08837991
    },
    {
      "epoch": "2026-04-15T17:37:50.316096Z",
      "apogee_km": 540.4847100988327,
      "perigee_km": 539.0665380109021,
      "latitude_deg": -4.4077762938026915e-05,
      "longitude_deg": 14.464396376602146,
      "height_km": 540.657244653661,
      "semi_major_axis_km": 6917.912624054868,
      "eccentricity": 0.0001025,
      "inclination_deg": 53.2168,
      "raan_deg": 122.8165,
      "arg_perigee_deg": 88.8298,
      "mean_anomaly_deg": 271.2811,
      "mean_motion_rev_day": 15.08829454
    },
    {
      "epoch": "2026-04-16T17:28:37.624800Z",
      "apogee_km": 540.4635706735353,
      "perigee_km": 539.0647710567864,
      "latitude_deg": -4.593650459651527e-05,
      "longitude_deg": 11.327737388227096,
      "height_km": 540.6033295249093,
      "semi_major_axis_km": 6917.901170865161,
      "eccentricity": 0.0001011,
      "inclination_deg": 53.2165,
      "raan_deg": 118.3563,
      "arg_perigee_deg": 85.3305,
      "mean_anomaly_deg": 274.7802,
      "mean_motion_rev_day": 15.08833201
    }
  ]
}